HAWK-A                  
1 43765U 18099H   26068.67628545  .00008617  00000+0  36104-3 0  9995
2 43765  97.4051 122.2425 0034260 275.5523  84.1807 15.23231043397949
STARLINK-33882          
1 63788U 25091P   26067.97865993  .00031961  00000+0  11651-2 0  9991
2 63788  43.0012  56.5202 0001337 173.0414 187.0457 15.27604135 48781
